[{"OBJECT_NAME":"STARLINK-11739 [DTC]","OBJECT_ID":"2025-127E","EPOCH":"2026-03-09T22:00:01.999584","MEAN_MOTION":15.70813799,"ECCENTRICITY":0.00014242,"INCLINATION":43.0002,"RA_OF_ASC_NODE":82.782,"ARG_OF_PERICENTER":250.325,"MEAN_ANOMALY":64.7043,"EPHEMERIS_TYPE":0,"CLASSIFICATION_TYPE":"U","NORAD_CAT_ID":64374,"ELEMENT_SET_NO":999,"REV_AT_EPOCH":598,"BSTAR":0.00030334635,"MEAN_MOTION_DOT":0.00038613,"MEAN_MOTION_DDOT":0},{"OBJECT_NAME":"OBJECT AA","OBJECT_ID":"2018-111AA","EPOCH":"2026-03-09T23:36:11.109888","MEAN_MOTION":15.74757696,"ECCENTRICITY":0.00074829,"INCLINATION":96.9708,"RA_OF_ASC_NODE":294.3811,"ARG_OF_PERICENTER":159.1179,"MEAN_ANOMALY":201.0394,"EPHEMERIS_TYPE":0,"CLASSIFICATION_TYPE":"U","NORAD_CAT_ID":43900,"ELEMENT_SET_NO":999,"REV_AT_EPOCH":40295,"BSTAR":0.00046694108,"MEAN_MOTION_DOT":0.00068892,"MEAN_MOTION_DDOT":0}]
